ESEO                    
1 43792U 18099AL  26068.65529582  .00002831  00000+0  20935-3 0  9991
2 43792  97.4113 110.2601 0011063 317.6000  42.4371 15.03914518396849
STARLINK-34737          
1 64933U 25158B   26068.61840760 -.00006926  00000+0 -47628-3 0  9994
2 64933  97.6034 293.9846 0002052  78.4884 281.6573 15.05645600 35344
